OBJECT_NAME,OBJECT_ID,EPOCH,MEAN_MOTION,ECCENTRICITY,INCLINATION,RA_OF_ASC_NODE,ARG_OF_PERICENTER,MEAN_ANOMALY,EPHEMERIS_TYPE,CLASSIFICATION_TYPE,NORAD_CAT_ID,ELEMENT_SET_NO,REV_AT_EPOCH,BSTAR,MEAN_MOTION_DOT,MEAN_MOTION_DDOT
OPS 6582 (TRANSIT 5B-5),1964-083D,2026-06-09T03:05:08.905920,13.57012078,.0039737,90.0766,202.9754,303.0174,110.5607,0,U,965,999,4252,.7054E-4,.59E-6,0
LES-1,1965-008C,2026-06-09T01:10:36.128064,9.88355003,.0015604,32.1455,63.9815,241.2638,118.6291,0,U,1002,999,21538,-.35373E-3,.6E-7,0
SOLRAD 7B,1965-016D,2026-06-09T00:12:40.251744,13.94974806,.0019219,70.0796,253.6504,137.0217,223.2394,0,U,1291,999,11556,.31242E-4,-.1E-6,0
SECOR 4 (EGRS 4),1965-027B,2026-06-09T03:25:11.391744,12.92667663,.0029961,90.2501,15.3965,218.9854,269.1269,0,U,1315,999,88588,.15962E-3,.51E-6,0
TIROS 10,1965-051A,2026-06-09T01:28:30.556992,14.41628012,.0056451,98.5030,279.4282,103.2494,257.5000,0,U,1430,999,19474,.59945E-4,.154E-5,0
ALOUETTE 2,1965-098A,2026-06-08T18:35:12.149088,12.28336662,.1329687,79.8016,283.8136,249.6033,95.7571,0,U,1804,999,67824,.15917E-3,.478E-5,0
OV3-3,1966-070A,2026-06-09T02:31:21.599040,13.45117603,.1012841,81.3256,338.1428,178.6310,181.8024,0,U,2389,999,59788,.71369E-3,.1593E-3,0
SECOR 7 (EGRS 7),1966-077B,2026-05-31T19:23:56.009760,8.59615314,.0011654,90.3353,277.2466,75.1080,285.1061,0,U,2411,999,87597,-.94660848E-2,-.17E-6,0
ERS 15,1966-077C,2026-05-30T06:48:48.924576,8.59079282,.00073123,90.3351,277.0217,86.0359,274.1328,0,U,2412,999,38892,0,.2E-7,0
ISIS 1,1969-009A,2026-06-07T15:11:06.565632,11.30432624,.17059844,88.4419,145.4497,267.5382,73.0235,0,U,3669,999,35869,.65787576E-4,.88E-6,0
SECOR 13 (EGRS 13),1969-037B,2026-06-09T05:00:27.835200,13.42976734,.0038662,99.6501,32.0418,271.0820,203.7667,0,U,3891,999,80068,.11585E-4,-.36E-6,0
ATS 5,1969-069A,2026-06-08T21:00:34.064064,0.99497582,.0005277,0.2469,156.3909,123.3191,97.4396,0,U,4068,999,4624,0,-.193E-5,0
OPS 7613 (P/L 4),1969-082E,2026-06-09T03:11:17.579904,13.95995174,.0018915,70.0136,121.0964,147.1063,224.2963,0,U,4237,999,88518,.5843E-4,.27E-6,0
OPS 7613 (P/L 1),1969-082B,2026-06-08T20:56:09.674880,13.99195530,.0017162,70.0102,342.8775,74.2096,286.0902,0,U,4256,999,88930,.94943E-4,.85E-6,0
SHINSEI (MS-F2),1971-080A,2026-06-08T15:02:05.363808,12.74251886,.0639695,32.0532,140.1723,342.4604,15.4806,0,U,5485,999,54816,.74205E-4,.56E-6,0
PROSPERO (BLACK ARROW),1971-093A,2026-06-09T02:08:08.418912,14.01591252,.0500142,82.0385,297.9383,250.3113,104.3457,0,U,5580,999,74739,.22993E-3,.1076E-4,0
OPS 7898 (P/L 2),1971-110C,2026-06-09T00:30:45.389088,13.74758132,.0008299,69.9905,19.7729,197.4478,162.6332,0,U,5680,999,34709,.37938E-4,-.14E-6,0
NOAA 2 (ITOS-D),1972-082A,2026-06-09T01:27:39.981024,12.53214707,.0004143,102.0075,178.5434,179.8599,244.4302,0,U,6235,999,45393,.76063E-4,-.34E-6,0
OSCAR 7 (AO-7),1974-089B,2026-06-09T00:03:53.845056,12.53697945,.0012492,101.9901,173.1638,145.3825,271.9948,0,U,7530,999,35949,.70926E-4,-.35E-6,0
TIROS N,1978-096A,2026-06-09T00:45:09.135072,14.19372825,.0009136,98.4531,181.4537,265.6428,94.3705,0,U,11060,999,67759,.679E-4,.101E-5,0
PHASE 3B (AO-10),1983-058B,2026-06-07T04:08:14.383680,2.05872980,.60142661,25.9048,221.2242,112.9115,319.2048,0,U,14129,999,29528,0,-.194E-5,0
HILAT,1983-063A,2026-06-09T02:27:06.554880,14.38706241,.0038265,82.0231,168.5431,316.8080,104.8192,0,U,14154,999,24642,.10016E-3,.325E-5,0
UOSAT 2 (UO-11),1984-021B,2026-06-09T04:00:19.780704,14.90763358,.0006887,97.8054,125.8314,199.5378,160.5577,0,U,14781,999,25593,.11978E-3,.1121E-4,0
NOAA 9,1984-123A,2026-06-09T02:01:05.694816,14.17066043,.001488,99.0990,186.5338,17.1282,47.0274,0,U,15427,999,14227,.5791E-4,.7E-6,0
GEOSAT,1985-021A,2026-06-09T00:30:34.606368,14.39962423,.0001249,108.0435,64.4552,282.1000,78.0002,0,U,15595,999,16159,.67185E-4,.76E-6,0
EUTELSAT 1-F4 (ECS 4),1987-078B,2026-06-08T18:30:38.536704,0.98691008,.0011207,13.8345,342.1874,43.0669,148.7511,0,U,18351,999,12667,0,-.195E-5,0
PACSAT (AO-16),1990-005D,2026-06-09T01:52:30.976320,14.33934078,.0009497,98.8524,195.5671,253.7930,161.0001,0,U,20439,999,90077,.5261E-4,.1E-5,0
LUSAT (LO-19),1990-005G,2026-06-09T02:07:51.105216,14.34120668,.001071,98.8852,181.6710,226.2681,133.7616,0,U,20442,999,90123,.52389E-4,.1E-5,0
IRS-1B,1991-061A,2026-06-09T00:53:45.469248,13.97872913,.0024963,99.4108,167.7802,27.8540,65.4344,0,U,21688,999,66735,.26982E-3,.336E-5,0
COSMOS 2197,1992-042A,2026-06-08T12:19:07.975200,12.64251936,.00114176,82.5945,234.4752,295.6179,78.6143,0,U,22034,999,56419,-.30048752E-4,.5E-7,0
PEGASUS R/B,1993-009C,2026-06-08T15:14:26.166048,14.57959892,.0043997,24.9760,143.8349,15.1716,345.0106,0,U,22491,999,76838,.17088E-3,.1013E-4,0
EYESAT A (AO-27),1993-061C,2026-06-09T02:21:47.955744,14.30940069,.0009411,98.6881,227.5146,120.7072,239.5039,0,U,22825,999,70584,.45187E-4,.74E-6,0
ITAMSAT (IO-26),1993-061D,2026-06-08T22:34:18.348096,14.31366725,.0010049,98.6829,227.2733,106.4244,253.8044,0,U,22826,999,70613,.51394E-4,.92E-6,0
RADIO ROSTO (RS15),1994-085A,2026-06-09T03:12:54.448128,11.27583633,.0155702,64.8186,316.2407,5.3648,354.8901,0,U,23439,999,29499,.20284E-3,-.35E-6,0
JAS-2 (FO-29),1996-046B,2026-06-09T02:30:14.710752,13.53273744,.0350777,98.5248,10.0837,117.3510,246.3789,0,U,24278,999,47207,.23943E-4,-.9E-7,0
FORTE,1997-047A,2026-06-09T00:56:22.979040,14.27941978,.002453,69.9542,32.4259,287.2570,72.5868,0,U,24920,999,49752,.69009E-4,.114E-5,0
NOAA 15,1998-030A,2026-06-09T04:38:15.572256,14.27144024,.0010539,98.5067,181.0417,17.8813,342.2737,0,U,25338,999,46015,.60776E-4,.106E-5,0
TECHSAT 1B (GO-32),1998-043D,2026-06-08T21:59:19.516704,14.24426823,.0000582,99.0065,152.4663,185.4157,174.7015,0,U,25397,999,45015,.48402E-4,.65E-6,0
ISS (ZARYA),1998-067A,2026-06-09T04:35:05.112096,15.49678250,.000689,51.6332,339.6717,149.5560,210.5830,0,U,25544,999,57051,.12924E-3,.6847E-4,0
ORSTED,1999-008B,2026-06-08T23:29:58.477056,14.51801191,.0130954,96.4832,69.3586,212.3529,146.9593,0,U,25635,999,44077,.90831E-4,.375E-5,0
LANDSAT 7,1999-020A,2026-06-09T04:18:16.354944,14.63910015,.0001802,97.8578,164.1820,94.8269,332.6473,0,U,25682,999,44467,.82265E-4,.386E-5,0
ORBCOMM FM36,1999-065E,2026-06-09T03:01:05.364192,14.39182493,.0005376,45.0372,197.8569,279.3181,80.7060,0,U,25984,999,38582,.24324E-3,.618E-5,0
DMSP 5D-3 F15 (USA 147),1999-067A,2026-06-09T04:22:14.780064,14.17562015,.0010478,98.9963,198.6366,31.0658,54.6983,0,U,25991,999,36951,.82666E-4,.122E-5,0
OPAL (OO-38),2000-004C,2026-06-09T02:32:37.639680,14.37961576,.0036475,100.1912,95.4383,58.4654,302.0082,0,U,26063,999,38212,.61159E-4,.127E-5,0
IMAGE,2000-017A,2026-06-08T09:09:06.779808,1.68665472,.7438912,94.2210,315.2579,288.8048,8.8428,0,U,26113,999,16135,.15648E-1,.33E-6,0
CLUSTER II-FM7 (SAMBA),2000-041A,2026-06-10T10:42:37.438560,0.44840364,.90481912,149.9132,49.6129,266.6863,359.9829,0,U,26410,999,2028,0,.4459E-4,0
CLUSTER II-FM8 (TANGO),2000-045B,2026-06-06T04:22:15.257856,0.44406384,.90462015,150.1407,49.6985,266.6195,3.2041,0,U,26464,999,2026,0,.4544E-4,0
MEGSAT-1,2000-057B,2026-06-09T04:09:06.291072,15.05451183,.004196,64.5497,94.7934,284.6998,74.9470,0,U,26546,999,39645,.19324E-3,.2656E-4,0
PHASE 3D (AO-40),2000-072B,2026-06-07T19:55:36.094368,1.25588181,.79308863,9.4410,352.4032,175.5404,203.3192,0,U,26609,999,11739,0,-.74E-6,0
ODIN,2001-007A,2026-06-09T02:04:25.356576,15.73146623,.0006524,97.3859,200.5220,153.1212,207.0391,0,U,26702,999,38812,.97686E-3,.135654E-2,0
OMNI-M1,2001-026A,2026-06-07T00:52:23.982816,3.92401508,.00145,44.8338,247.6044,52.1985,307.9833,0,U,26857,999,20517,0,-.11E-6,0
PCSAT (NO-44),2001-043C,2026-06-08T23:41:51.105984,14.31953167,.0006111,67.0512,265.4797,264.3039,95.7366,0,U,26931,999,28927,.65089E-4,.92E-6,0
PROBA-1,2001-049B,2026-06-09T02:31:10.731648,15.07461421,.0055574,97.9600,168.3553,148.9968,211.4559,0,U,26958,999,34240,.18612E-3,.2851E-4,0
SPOT 5,2002-021A,2026-06-09T04:37:25.647744,14.54746139,.0128387,97.9850,199.4093,301.6590,57.2137,0,U,27421,999,26168,.61487E-4,.243E-5,0
FENGYUN 1D,2002-024B,2026-06-09T03:08:27.174912,14.10223565,.0014303,98.9520,210.4977,265.2722,94.6815,0,U,27431,999,23834,.63809E-4,.68E-6,0
SAUDISAT 1C (SO-50),2002-058C,2026-06-09T04:45:27.885024,14.83029182,.0075439,64.5504,153.7028,263.9457,95.3049,0,U,27607,999,26327,.12675E-3,.928E-5,0
CORIOLIS,2003-001A,2026-06-09T00:33:27.020160,14.19942563,.0013009,98.7126,167.0326,233.7419,126.2556,0,U,27640,999,21306,.60666E-4,.85E-6,0
CUTE-1 (CO-55),2003-031E,2026-06-08T21:19:17.031648,14.24330680,.0008985,98.6735,168.5516,202.7480,157.3302,0,U,27844,999,19049,.1425E-3,.286E-5,0
CUBESAT XI-IV (CO-57),2003-031J,2026-06-09T00:19:05.277792,14.23616414,.0008561,98.6766,168.3941,222.5153,137.5363,0,U,27848,999,19021,.11652E-3,.222E-5,0
MOZHAETS 4 (RS22),2003-042A,2026-06-09T04:53:55.614624,14.73452037,.0010199,98.3474,344.3377,298.5540,149.9312,0,U,27939,999,21437,.81624E-4,.476E-5,0
IRS-P6 (RESOURCESAT-1),2003-046A,2026-06-09T05:15:41.084928,14.36160418,.0064434,98.1909,197.1229,7.3791,70.2970,0,U,28051,999,17938,.10207E-3,.264E-5,0
SAUDISAT 2,2004-025F,2026-06-08T23:48:55.867392,14.56678993,.0023954,98.5506,159.7625,324.3994,35.5604,0,U,28371,999,16455,.64886E-4,.241E-5,0
COSMOS 2407,2004-028A,2026-06-09T03:39:25.504128,13.76334167,.0037789,82.9609,80.7847,275.2714,197.6226,0,U,28380,999,9877,.44003E-4,.58E-6,0
COSMOS 2414,2005-002A,2026-06-09T04:10:54.431040,13.87925958,.0040059,82.9505,49.7081,354.3561,5.7145,0,U,28521,999,8270,.30652E-4,.52E-6,0
INMARSAT 4-F1,2005-009A,2026-06-08T19:02:18.768192,1.00271982,.0002707,5.1558,42.7387,38.2720,279.8694,0,U,28628,999,7758,0,.47E-6,0
HAMSAT (VO-52),2005-017B,2026-06-09T00:52:45.987168,15.09654505,.0020688,97.9908,182.7612,67.0221,293.3187,0,U,28650,999,14553,.22392E-3,.3551E-4,0
NOAA 18,2005-018A,2026-06-09T04:41:13.658208,14.13727756,.0014498,98.8112,239.9880,169.5553,190.5924,0,U,28654,999,8518,.42349E-4,.36E-6,0
